#dV2019  9  8  0  0  0.00000000    8640 U+u   IGS14 FIT TUD 
## 2070      0.00000000    10.00000000 58734 0.0000000000000
+    1   L47  0  0  0  0  0  0  0  0  0  0  0  0  0  0  0  0                          
+          0  0  0  0  0  0  0  0  0  0  0  0  0  0  0  0  0                          
+          0  0  0  0  0  0  0  0  0  0  0  0  0  0  0  0  0                          
+          0  0  0  0  0  0  0  0  0  0  0  0  0  0  0  0  0                          
+          0  0  0  0  0  0  0  0  0  0  0  0  0  0  0  0  0                          
++         0  0  0  0  0  0  0  0  0  0  0  0  0  0  0  0  0                          
++         0  0  0  0  0  0  0  0  0  0  0  0  0  0  0  0  0                          
++         0  0  0  0  0  0  0  0  0  0  0  0  0  0  0  0  0                          
++         0  0  0  0  0  0  0  0  0  0  0  0  0  0  0  0  0                          
++         0  0  0  0  0  0  0  0  0  0  0  0  0  0  0  0  0                          
%c M  cc GPS ccc cccc cccc cccc cccc ccccc ccccc ccccc ccccc                          
%c cc cc ccc ccc cccc cccc cccc cccc ccccc ccccc ccccc ccccc                          
%f  0.0000000  0.000000000  0.00000000000  0.000000000000000                          
%f  0.0000000  0.000000000  0.00000000000  0.000000000000000                          
%i    0    0    0    0      0      0      0      0         0                          
%i    0    0    0    0      0      0      0      0         0                          
/* Created by: RDOD_AR_WGT                                                            
/* Setup     : SWARMA.19.251_RDOD_AR.inp                                              
/* Executed  : 10-May-2021 10:36 UTC, by swarmgen@euclid2.lr.tudelft.nl               
/*                                                                                    
*  2019 09 08 19 26 00.00000000                             
PL47  1498.2366129 -1093.2506863  6545.3932777 999999.999999
VL47-51758.9029250 52192.2921837 20516.8664668 999999.999999
*  2019 09 08 19 26 10.00000000                             
PL47  1446.4229614 -1040.9531597  6565.4963593 999999.999999
VL47-51867.2656097 52401.6936594 19688.8763479 999999.999999
*  2019 09 08 19 26 20.00000000                             
PL47  1394.5043513  -988.4494397  6584.7702073 999999.999999
VL47-51968.8193861 52604.6730043 18858.4168226 999999.999999
*  2019 09 08 19 26 30.00000000                             
PL47  1342.4875932  -935.7459660  6603.2124046 999999.999999
VL47-52063.5611975 52801.1953678 18025.5922894 999999.999999
*  2019 09 08 19 26 40.00000000                             
PL47  1290.3795003  -882.8492127  6620.8206384 999999.999999
VL47-52151.4890261 52991.2264943 17190.5074516 999999.999999
*  2019 09 08 19 26 50.00000000                             
PL47  1238.1868869  -829.7656880  6637.5927010 999999.999999
VL47-52232.6018670 53174.7327902 16353.2672959 999999.999999
*  2019 09 08 19 27 00.00000000                             
PL47  1185.9165683  -776.5019329  6653.5264897 999999.999999
VL47-52306.8993690 53351.6818690 15513.9770500 999999.999999
*  2019 09 08 19 27 10.00000000                             
PL47  1133.5753597  -723.0645206  6668.6200069 999999.999999
VL47-52374.3821860 53522.0420123 14672.7421398 999999.999999
*  2019 09 08 19 27 20.00000000                             
PL47  1081.1700750  -669.4600555  6682.8713609 999999.999999
VL47-52435.0519211 53685.7821794 13829.6681699 999999.999999
*  2019 09 08 19 27 30.00000000                             
PL47  1028.7075261  -615.6951728  6696.2787655 999999.999999
VL47-52488.9108245 53842.8724416 12984.8609311 999999.999999
*  2019 09 08 19 27 40.00000000                             
PL47   976.1945225  -561.7765371  6708.8405404 999999.999999
VL47-52535.9621078 53993.2834972 12138.4264206 999999.999999
*  2019 09 08 19 27 50.00000000                             
PL47   923.6378698  -507.7108418  6720.5551113 999999.999999
VL47-52576.2099341 54136.9867094 11290.4708509 999999.999999
*  2019 09 08 19 28 00.00000000                             
PL47   871.0443689  -453.5048088  6731.4210105 999999.999999
VL47-52609.6592146 54273.9545169 10441.1006340 999999.999999
*  2019 09 08 19 28 10.00000000                             
PL47   818.4208156  -399.1651869  6741.4368766 999999.999999
VL47-52636.3158551 54404.1600229  9590.4223520 999999.999999
*  2019 09 08 19 28 20.00000000                             
PL47   765.7739991  -344.6987516  6750.6014548 999999.999999
VL47-52656.1866787 54527.5771081  8738.5427358 999999.999999
*  2019 09 08 19 28 30.00000000                             
PL47   713.1107016  -290.1123039  6758.9135972 999999.999999
VL47-52669.2793380 54644.1805620  7885.5686561 999999.999999
*  2019 09 08 19 28 40.00000000                             
PL47   660.4376970  -235.4126698  6766.3722629 999999.999999
VL47-52675.6023568 54753.9460516  7031.6071207 999999.999999
*  2019 09 08 19 28 50.00000000                             
PL47   607.7617503  -180.6066990  6772.9765180 999999.999999
VL47-52675.1651478 54856.8500695  6176.7652619 999999.999999
*  2019 09 08 19 29 00.00000000                             
PL47   555.0896167  -125.7012644  6778.7255358 999999.999999
VL47-52667.9780216 54952.8698883  5321.1503159 999999.999999
*  2019 09 08 19 29 10.00000000                             
PL47   502.4280405   -70.7032611  6783.6185967 999999.999999
VL47-52654.0521023 55041.9838226  4464.8696023 999999.999999
*  2019 09 08 19 29 20.00000000                             
PL47   449.7837547   -15.6196057  6787.6550888 999999.999999
VL47-52633.3994003 55124.1709695  3608.0305131 999999.999999
*  2019 09 08 19 29 30.00000000                             
PL47   397.1634797    39.5427652  6790.8345074 999999.999999
VL47-52606.0327720 55199.4112441  2750.7405039 999999.999999
*  2019 09 08 19 29 40.00000000                             
PL47   344.5739226    94.7768948  6793.1564554 999999.999999
VL47-52571.9659182 55267.6855615  1893.1070860 999999.999999
*  2019 09 08 19 29 50.00000000                             
PL47   292.0217764   150.0758082  6794.6206430 999999.999999
VL47-52531.2133962 55328.9756508  1035.2378147 999999.999999
*  2019 09 08 19 30 00.00000000                             
PL47   239.5137193   205.4325122  6795.2268882 999999.999999
VL47-52483.7905847 55383.2640921   177.2402766 999999.999999
*  2019 09 08 19 30 10.00000000                             
PL47   187.0564133   260.8399970  6794.9751167 999999.999999
VL47-52429.7137511 55430.5344365  -680.7779259 999999.999999
*  2019 09 08 19 30 20.00000000                             
PL47   134.6565041   316.2912365  6793.8653614 999999.999999
VL47-52368.9999914 55470.7710856 -1538.7091930 999999.999999
*  2019 09 08 19 30 30.00000000                             
PL47    82.3206197   371.7791897  6791.8977631 999999.999999
VL47-52301.6671922 55503.9593209 -2396.4459467 999999.999999
*  2019 09 08 19 30 40.00000000                             
PL47    30.0553698   427.2968011  6789.0725702 999999.999999
VL47-52227.7341600 55530.0853487 -3253.8806432 999999.999999
*  2019 09 08 19 30 50.00000000                             
PL47   -22.1326551   482.8370020  6785.3901383 999999.999999
VL47-52147.2204900 55549.1362403 -4110.9057821 999999.999999
*  2019 09 08 19 31 00.00000000                             
PL47   -74.2368844   538.3927112  6780.8509309 999999.999999
VL47-52060.1465267 55561.0999699 -4967.4139132 999999.999999
*  2019 09 08 19 31 10.00000000                             
PL47  -126.2507685   593.9568358  6775.4555186 999999.999999
VL47-51966.5335686 55565.9654047 -5823.2976466 999999.999999
*  2019 09 08 19 31 20.00000000                             
PL47  -178.1677792   649.5222725  6769.2045795 999999.999999
VL47-51866.4036582 55563.7223201 -6678.4496655 999999.999999
*  2019 09 08 19 31 30.00000000                             
PL47  -229.9814111   705.0819079  6762.0988990 999999.999999
VL47-51759.7796201 55554.3614081 -7532.7627402 999999.999999
*  2019 09 08 19 31 40.00000000                             
PL47  -281.6851817   760.6286199  6754.1393694 999999.999999
VL47-51646.6851106 55537.8742806 -8386.1297426 999999.999999
*  2019 09 08 19 31 50.00000000                             
PL47  -333.2726326   816.1552785  6745.3269905 999999.999999
VL47-51527.1446625 55514.2534233 -9238.4436600 999999.999999
*  2019 09 08 19 32 00.00000000                             
PL47  -384.7373308   871.6547466  6735.6628688 999999.999999
VL47-51401.1835704 55483.4922462-10089.5976081 999999.999999
*  2019 09 08 19 32 10.00000000                             
PL47  -436.0728682   927.1198810  6725.1482175 999999.999999
VL47-51268.8277912 55445.5851291-10939.4848426 999999.999999
*  2019 09 08 19 32 20.00000000                             
PL47  -487.2728638   982.5435333  6713.7843568 999999.999999
VL47-51130.1043153 55400.5272560-11787.9987724 999999.999999
*  2019 09 08 19 32 30.00000000                             
PL47  -538.3309635  1037.9185506  6701.5727132 999999.999999
VL47-50985.0408071 55348.3147678-12635.0329709 999999.999999
*  2019 09 08 19 32 40.00000000                             
PL47  -589.2408415  1093.2377770  6688.5148196 999999.999999
VL47-50833.6655615 55288.9447957-13480.4811867 999999.999999
*  2019 09 08 19 32 50.00000000                             
PL47  -639.9962005  1148.4940537  6674.6123149 999999.999999
VL47-50676.0079293 55222.4152362-14324.2373504 999999.999999
*  2019 09 08 19 33 00.00000000                             
PL47  -690.5907732  1203.6802205  6659.8669442 999999.999999
VL47-50512.0978908 55148.7249714-15166.1955800 999999.999999
*  2019 09 08 19 33 10.00000000                             
PL47  -741.0183223  1258.7891167  6644.2805583 999999.999999
VL47-50341.9660169 55067.8739099-16006.2501873 999999.999999
EOF                                                         
